*******************************************************************************
JPL/HORIZONS              455 Bruchsalia (A900 KC)         2020-Jun-22 09:08:44
Rec #:     455 (+COV) Soln.date: 2020-May-20_01:05:53   # obs: 2762 (1900-2020)
 
IAU76/J2000 helio. ecliptic osc. elements (au, days, deg., period=Julian yrs):
 
  EPOCH=  2454857.5 ! 2009-Jan-26.00 (TDB)         Residual RMS= .27718
   EC= .2946451881655378   QR= 1.873198226757721   TP= 2455047.2802563114
   OM= 76.6109701587001    W=  272.1882480769655   IN= 12.02173899755914
   A= 2.655682211745281    MA= 316.7793846486359   ADIST= 3.438166196732841
   PER= 4.32785            N= .227740309           ANGMOM= .026788518
   DAN= 2.39815            DDN= 2.45272            L= 348.8482465
   B= -12.0128415          MOID= .91141301         TP= 2009-Aug-03.7802563114
 
Asteroid physical parameters (km, seconds, rotational period in hours):
   GM= n.a.                RAD= 44.396             ROTPER= 11.85
   H= 8.9                  G= .150                 B-V= .694
                           ALBEDO= .033            STYP= CP
 
ASTEROID comments: 
1: soln ref.= JPL#87, OCC=0
2: source=ORB
*******************************************************************************
 
 
*******************************************************************************
Ephemeris / WWW_USER Mon Jun 22 09:08:44 2020 Pasadena, USA      / Horizons
*******************************************************************************
Target body name: 455 Bruchsalia (A900 KC)        {source: JPL#87}
Center body name: Solar System Barycenter (0)     {source: DE431}
Center-site name: BODY CENTER
*******************************************************************************
Start time      : A.D. 1969-Jun-28 00:00:00.0000 TDB
Stop  time      : A.D. 2071-May-04 00:00:00.0000 TDB
Step-size       : 7200 minutes
*******************************************************************************
Center geodetic : 0.00000000,0.00000000,0.0000000 {E-lon(deg),Lat(deg),Alt(km)}
Center cylindric: 0.00000000,0.00000000,0.0000000 {E-lon(deg),Dxy(km),Dz(km)}
Center radii    : (undefined)                                                  
Small perturbers: Yes                             {source: SB431-N16}
Output units    : AU-D
Output type     : GEOMETRIC cartesian states
Output format   : 2 (position and velocity)
Reference frame : Ecliptic of J2000.0
*******************************************************************************
Initial IAU76/J2000 heliocentric ecliptic osculating elements (au, days, deg.):
  EPOCH=  2454857.5 ! 2009-Jan-26.00 (TDB)         Residual RMS= .27718        
   EC= .2946451881655378   QR= 1.873198226757721   TP= 2455047.2802563114      
   OM= 76.6109701587001    W=  272.1882480769655   IN= 12.02173899755914       
  Equivalent ICRF heliocentric equatorial cartesian coordinates (au, au/d):
   X= 2.029674674473360E-01  Y=-1.976796781671121E+00  Z=-1.022209303258548E+00
  VX= 1.140534738432222E-02 VY= 4.823270280701240E-03 VZ=-2.516920194025642E-04
Asteroid physical parameters (km, seconds, rotational period in hours):        
   GM= n.a.                RAD= 44.396             ROTPER= 11.85               
   H= 8.9                  G= .150                 B-V= .694                   
                           ALBEDO= .033            STYP= CP                    
*******************************************************************************
            JDTDB,            Calendar Date (TDB),        delta-T,                      X,                      Y,                      Z,                     VX,                     VY,                     VZ,
******************************************************************************************************************************************************************************************************************
$$SOE
2458180.500000000, A.D. 2018-Mar-03 00:00:00.0000,      69.185426,  1.662725812821191E+00, -8.109191209541710E-01, -3.850999412472966E-01,  5.363987361695945E-03,  1.313937800502299E-02, -4.385697288491520E-04,
2458185.500000000, A.D. 2018-Mar-08 00:00:00.0000,      69.185494,  1.688630170277045E+00, -7.447862914651199E-01, -3.870813606333017E-01,  4.996412399719776E-03,  1.331152002500413E-02, -3.538345759444066E-04,
2458190.500000000, A.D. 2018-Mar-13 00:00:00.0000,      69.185552,  1.712677060824022E+00, -6.778266870464619E-01, -3.886367893289971E-01,  4.621113287809673E-03,  1.347000375631405E-02, -2.682010378009682E-04,
2458195.500000000, A.D. 2018-Mar-18 00:00:00.0000,      69.185599,  1.734829589265932E+00, -6.101098233953224E-01, -3.897621544636045E-01,  4.238787157190765E-03,  1.361434745698250E-02, -1.818377576267299E-04,
2458200.500000000, A.D. 2018-Mar-23 00:00:00.0000,      69.185635,  1.755054446275272E+00, -5.417075019160441E-01, -3.904542408044365E-01,  3.850170519073302E-03,  1.374411929325464E-02, -9.491896574634878E-05,
2458205.500000000, A.D. 2018-Mar-28 00:00:00.0000,      69.185657,  1.773322094280404E+00, -4.726935499601807E-01, -3.907107158961716E-01,  3.456034774100574E-03,  1.385894134688718E-02, -7.623347472638468E-06,
2458210.500000000, A.D. 2018-Apr-02 00:00:00.0000,      69.185665,  1.789606929670548E+00, -4.031435422965109E-01, -3.905301493495386E-01,  3.057181240866570E-03,  1.395849310367162E-02,  7.986716211537376E-05,
2458215.500000000, A.D. 2018-Apr-07 00:00:00.0000,      69.185661,  1.803887419085244E+00, -3.331345065791290E-01, -3.899120259585777E-01,  2.654435773731757E-03,  1.404251435528624E-02,  1.673686383802278E-04,
2458220.500000000, A.D. 2018-Apr-12 00:00:00.0000,      69.185647,  1.816146207930879E+00, -2.627446158924442E-01, -3.888567524196689E-01,  2.248643049910694E-03,  1.411080745842541E-02,  2.546964628772049E-04,
2458225.500000000, A.D. 2018-Apr-17 00:00:00.0000,      69.185621,  1.826370199688259E+00, -1.920528716989445E-01, -3.873656575253528E-01,  1.840660614100859E-03,  1.416323890866580E-02,  3.416666342228770E-04,
2458230.500000000, A.D. 2018-Apr-22 00:00:00.0000,      69.185584,  1.834550605032814E+00, -1.211387806919996E-01, -3.854409858095729E-01,  1.431352774992442E-03,  1.419974020121662E-02,  4.280970731606738E-04,
2458235.500000000, A.D. 2018-Apr-27 00:00:00.0000,      69.185533,  1.840682960270311E+00, -5.008202915673449E-02, -3.830858847255896E-01,  1.021584451391707E-03,  1.422030796619843E-02,  5.138089009946630E-04,
2458240.500000000, A.D. 2018-May-02 00:00:00.0000,      69.185470,  1.844767115082309E+00,  2.103784153573903E-02, -3.803043855404863E-01,  6.122150662758072E-04,  1.422500338191233E-02,  5.986276712495898E-04,
2458245.500000000, A.D. 2018-May-07 00:00:00.0000,      69.185397,  1.846807190062782E+00,  9.214175473191161E-02, -3.771013782280033E-01,  2.040925849061542E-04,  1.421395088513508E-02,  6.823845356610005E-04,
2458250.500000000, A.D. 2018-May-12 00:00:00.0000,      69.185316,  1.846811504997023E+00,  1.631514101610126E-01, -3.734825807317579E-01, -2.019522116849065E-04,  1.418733621224434E-02,  7.649173273401177E-04,
2458255.500000000, A.D. 2018-May-17 00:00:00.0000,      69.185226,  1.844792479273476E+00,  2.339895842286318E-01, -3.694545030514502E-01, -6.051111337059484E-04,  1.414540381837701E-02,  8.460715461129801E-04,
2458260.500000000, A.D. 2018-May-22 00:00:00.0000,      69.185127,  1.840766506217249E+00,  3.045804159713202E-01, -3.650244066735179E-01, -1.004603595354893E-03,  1.408845373326726E-02,  9.257012335521213E-04,
2458265.500000000, A.D. 2018-May-27 00:00:00.0000,      69.185018,  1.834753803479715E+00,  3.748496760216543E-01, -3.602002599229152E-01, -1.399681170232059E-03,  1.401683792154639E-02,  1.003669728187992E-03,
2458270.500000000, A.D. 2018-Jun-01 00:00:00.0000,      69.184901,  1.826778241899981E+00,  4.447250162916175E-01, -3.549906898517625E-01, -1.789631640136389E-03,  1.393095622299301E-02,  1.079850294817252E-03,
2458275.500000000, A.D. 2018-Jun-06 00:00:00.0000,      69.184778,  1.816867155467741E+00,  5.141361984785009E-01, -3.494049313034109E-01, -2.173782500301377E-03,  1.383125195558369E-02,  1.154126624607852E-03,
2458280.500000000, A.D. 2018-Jun-11 00:00:00.0000,      69.184651,  1.805051135180431E+00,  5.830152999217570E-01, -3.434527738035887E-01, -2.551503892446274E-03,  1.371820726678339E-02,  1.226393203934796E-03,
2458285.500000000, A.D. 2018-Jun-16 00:00:00.0000,      69.184520,  1.791363809701478E+00,  6.512968957561155E-01, -3.371445069351773E-01, -2.922210950403691E-03,  1.359233831381974E-02,  1.296555552605485E-03,
2458290.500000000, A.D. 2018-Jun-21 00:00:00.0000,      69.184385,  1.775841615754048E+00,  7.189182167017506E-01, -3.304908648380844E-01, -3.285365562208719E-03,  1.345419035139331E-02,  1.364530336760536E-03,
2458295.500000000, A.D. 2018-Jun-26 00:00:00.0000,      69.184245,  1.758523561132862E+00,  7.858192822254241E-01, -3.235029704425589E-01, -3.640477563812953E-03,  1.330433280513326E-02,  1.430245363871457E-03,
2458300.500000000, A.D. 2018-Jul-01 00:00:00.0000,      69.184103,  1.739450983125190E+00,  8.519430091869084E-01, -3.161922800057919E-01, -3.987105385906916E-03,  1.314335440373462E-02,  1.493639467852629E-03,
2458305.500000000, A.D. 2018-Jul-06 00:00:00.0000,      69.183961,  1.718667305004852E+00,  9.172352964292453E-01, -3.085705284785821E-01, -4.324856183586293E-03,  1.297185843443712E-02,  1.554662293602884E-03,
2458310.500000000, A.D. 2018-Jul-11 00:00:00.0000,      69.183821,  1.696217793093452E+00,  9.816450860739486E-01, -3.006496761787128E-01, -4.653385486641775E-03,  1.279045817823213E-02,  1.613273991642147E-03,
2458315.500000000, A.D. 2018-Jul-16 00:00:00.0000,      69.183682,  1.672149316678587E+00,  1.045124402543343E+00, -2.924418571920794E-01, -4.972396414139376E-03,  1.259977257279599E-02,  1.669444834330041E-03,
